FLOCK 4G-36             
1 62675U 25009BU  26068.70726311  .00013573  00000+0  51122-3 0  9993
2 62675  97.4053 151.0513 0003474 324.2456  35.8550 15.27209548 63701
STARLINK-35836          
1 66571U 25268Q   26068.15612101  .00040369  00000+0  14684-2 0  9993
2 66571  43.0058 350.4695 0001791 280.5587  79.5063 15.27581175 17877
